{"fetched_at":"2026-03-30T13:17:50Z","count":15418,"tles":[{"name":"STARLINK-30933","line1":"1 58410U 23180J   26087.61138413  .00011189  00000+0  41537-3 0  9994","line2":"2 58410  43.0004 159.8838 0001779 273.1514  86.9134 15.27591286132238","category":"Starlink"}]}